NORAD_CAT_ID,OBJECT_NAME,OBJECT_TYPE,EPOCH,MEAN_MOTION,ECCENTRICITY,INCLINATION,RA_OF_ASC_NODE,ARG_OF_PERICENTER,MEAN_ANOMALY,BSTAR,MEAN_MOTION_DOT,MEAN_MOTION_DDOT,TLE_LINE0,TLE_LINE1,TLE_LINE2,SEMIMAJOR_AXIS,PERIOD,APOGEE,PERIGEE,DECAYED
53026.0,STARLINK-4119,PAYLOAD,2023-05-23 20:18:28,15.08848543,0.0001028,53.2174,346.8642,80.6856,279.4252,0.00044726,6.839e-05,0.0,0 STARLINK-4119,1 53026U 22076AS  23143.84616525  .00006839  00000-0  44726-3 0  9995,2 53026  53.2174 346.8642 0001028  80.6856 279.4252 15.08848543 48871,6917.854,95.437,540.43,539.008,0.0
53026.0,STARLINK-4119,PAYLOAD,2023-05-24 15:23:06,15.08848687,0.0001026,53.2172,343.2962,83.2762,276.8347,0.00079995,0.00012469,0.0,0 STARLINK-4119,1 53026U 22076AS  23144.64104754  .00012469  00000-0  79995-3 0  9992,2 53026  53.2172 343.2962 0001026  83.2762 276.8347 15.08848687 49469,6917.854,95.437,540.429,539.009,0.0
53026.0,STARLINK-4119,PAYLOAD,2023-05-25 18:24:39,15.08846239,0.0001076,53.2173,338.2416,78.5545,281.5567,0.00024387,3.596e-05,0.0,0 STARLINK-4119,1 53026U 22076AS  23145.76712622  .00003596  00000-0  24387-3 0  9991,2 53026  53.2173 338.2416 0001076  78.5545 281.5567 15.08846239 49636,6917.861,95.437,540.471,538.982,0.0
53026.0,STARLINK-4119,PAYLOAD,2023-05-25 21:35:25,15.08848902,0.0001119,53.2173,337.6465,91.0398,269.0722,0.00027839,4.147e-05,0.0,0 STARLINK-4119,1 53026U 22076AS  23145.89960450  .00004147  00000-0  27839-3 0  9997,2 53026  53.2173 337.6465 0001119  91.0398 269.0722 15.08848902 49180,6917.853,95.437,540.492,538.944,0.0
53026.0,STARLINK-4119,PAYLOAD,2023-05-26 18:15:26,15.08839967,0.0001098,53.2171,333.781,87.4244,272.6874,5.736e-05,6.25e-06,0.0,0 STARLINK-4119,1 53026U 22076AS  23146.76072789  .00000625  00000-0  57360-4 0  9993,2 53026  53.2171 333.7810 0001098  87.4244 272.6874 15.08839967 49789,6917.88,95.438,540.505,538.986,0.0
53026.0,STARLINK-4119,PAYLOAD,2023-05-26 21:26:13,15.08842191,0.0001212,53.217,333.1858,84.5949,275.5181,9.8908e-05,1.287e-05,0.0,0 STARLINK-4119,1 53026U 22076AS  23146.89320718  .00001287  00000-0  98908-4 0  9993,2 53026  53.2170 333.1858 0001212  84.5949 275.5181 15.08842191 49339,6917.874,95.437,540.577,538.9,0.0
53026.0,STARLINK-4119,PAYLOAD,2023-05-27 19:41:37,15.08841571,0.0001123,53.217,329.0227,85.5655,274.5466,7.3386e-05,8.8e-06,0.0,0 STARLINK-4119,1 53026U 22076AS  23147.82056858  .00000880  00000-0  73386-4 0  9999,2 53026  53.2170 329.0227 0001123  85.5655 274.5466 15.08841571 49942,6917.876,95.437,540.517,538.964,0.0
53026.0,STARLINK-4119,PAYLOAD,2023-05-28 05:13:55,15.08846003,0.000105,53.2169,327.2392,89.4898,270.6214,2.8412e-05,1.64e-06,0.0,0 STARLINK-4119,1 53026U 22076AS  23148.21800628  .00000164  00000-0  28412-4 0  9990,2 53026  53.2169 327.2392 0001050  89.4898 270.6214 15.08846003 49532,6917.862,95.437,540.453,539.001,0.0
53026.0,STARLINK-4119,PAYLOAD,2023-05-28 16:21:37,15.08846132,0.0001023,53.2169,325.1576,86.6592,273.4517,0.00015519,2.183e-05,0.0,0 STARLINK-4119,1 53026U 22076AS  23148.68168703  .00002183  00000-0  15519-3 0  9998,2 53026  53.2169 325.1576 0001023  86.6592 273.4517 15.08846132 49601,6917.862,95.437,540.434,539.019,0.0
53026.0,STARLINK-4119,PAYLOAD,2023-05-29 05:04:42,15.08843456,9.95e-05,53.217,322.7779,85.723,274.3876,0.00010775,1.428e-05,0.0,0 STARLINK-4119,1 53026U 22076AS  23149.21160783  .00001428  00000-0  10775-3 0  9998,2 53026  53.2170 322.7779 0000995  85.7230 274.3876 15.08843456 50153,6917.87,95.437,540.423,539.046,0.0
53026.0,STARLINK-4119,PAYLOAD,2023-05-29 17:47:48,15.08836547,0.0001029,53.217,320.3987,84.5464,275.5646,4.7046e-05,4.61e-06,0.0,0 STARLINK-4119,1 53026U 22076AS  23149.74153205  .00000461  00000-0  47046-4 0  9995,2 53026  53.2170 320.3987 0001029  84.5464 275.5646 15.08836547 50233,6917.891,95.438,540.468,539.044,0.0
53026.0,STARLINK-4119,PAYLOAD,2023-05-29 20:58:34,15.0884193,0.000107,53.2182,319.8027,88.5154,271.5961,5.6387e-05,6.1e-06,0.0,0 STARLINK-4119,1 53026U 22076AS  23149.87400990  .00000610  00000-0  56387-4 0  9999,2 53026  53.2182 319.8027 0001070  88.5154 271.5961 15.08841930 49786,6917.874,95.437,540.48,538.999,0.0
53026.0,STARLINK-4119,PAYLOAD,2023-05-30 04:55:30,15.0884039,0.0001082,53.2183,318.316,88.1389,271.9727,5.5601e-05,5.97e-06,0.0,0 STARLINK-4119,1 53026U 22076AS  23150.20521063  .00000597  00000-0  55601-4 0  9995,2 53026  53.2183 318.3160 0001082  88.1389 271.9727 15.08840390 49837,6917.879,95.438,540.493,538.996,0.0
53026.0,STARLINK-4119,PAYLOAD,2023-05-30 16:03:11,15.08847538,0.000111,53.2178,316.2352,81.914,278.1978,-4.4495e-05,-9.96e-06,0.0,0 STARLINK-4119,1 53026U 22076AS  23150.66888750 -.00000996  00000-0 -44495-4 0  9998,2 53026  53.2178 316.2352 0001110  81.9140 278.1978 15.08847538 50378,6917.857,95.437,540.49,538.954,0.0
53026.0,STARLINK-4119,PAYLOAD,2023-05-30 20:49:21,15.08844983,0.0001087,53.2179,315.3424,85.4395,274.6722,5.6959e-05,6.19e-06,0.0,0 STARLINK-4119,1 53026U 22076AS  23150.86760655  .00000619  00000-0  56959-4 0  9991,2 53026  53.2179 315.3424 0001087  85.4395 274.6722 15.08844983 49932,6917.865,95.437,540.482,538.978,0.0
53026.0,STARLINK-4119,PAYLOAD,2023-05-31 14:18:35,15.08840914,0.0001071,53.2179,312.0713,83.5404,276.571,0.00011115,1.482e-05,0.0,0 STARLINK-4119,1 53026U 22076AS  23151.59624741  .00001482  00000-0  11115-3 0  9990,2 53026  53.2179 312.0713 0001071  83.5404 276.5710 15.08840914 50042,6917.878,95.437,540.483,539.002,0.0
53026.0,STARLINK-4119,PAYLOAD,2023-05-31 17:29:21,15.0883887,0.0001021,53.2178,311.4774,79.2273,280.8835,0.00024769,3.656e-05,0.0,0 STARLINK-4119,1 53026U 22076AS  23151.72872674  .00003656  00000-0  24769-3 0  9999,2 53026  53.2178 311.4774 0001021  79.2273 280.8835 15.08838870 50530,6917.884,95.438,540.455,539.043,0.0
53026.0,STARLINK-4119,PAYLOAD,2023-05-31 20:40:07,15.08846973,0.0001069,53.2178,310.8827,77.0775,283.0336,0.00012869,1.761e-05,0.0,0 STARLINK-4119,1 53026U 22076AS  23151.86120318  .00001761  00000-0  12869-3 0  9998,2 53026  53.2178 310.8827 0001069  77.0775 283.0336 15.08846973 50081,6917.859,95.437,540.464,538.985,0.0
53026.0,STARLINK-4119,PAYLOAD,2023-06-01 10:58:37,15.08833212,0.0001017,53.218,308.2059,82.474,277.6367,1.6617e-06,-2.61e-06,0.0,0 STARLINK-4119,1 53026U 22076AS  23152.45737546 -.00000261  00000-0  16617-5 0  9993,2 53026  53.2180 308.2059 0001017  82.4740 277.6367 15.08833212 50172,6917.901,95.438,540.47,539.063,0.0
53026.0,STARLINK-4119,PAYLOAD,2023-06-02 14:00:10,15.08839999,9.36e-05,53.2172,303.1535,85.2604,274.8495,-1.9594e-05,-6e-06,0.0,0 STARLINK-4119,1 53026U 22076AS  23153.58345400 -.00000600  00000-0 -19594-4 0  9996,2 53026  53.2172 303.1535 0000936  85.2604 274.8495 15.08839999 50343,6917.88,95.438,540.393,539.098,0.0
53026.0,STARLINK-4119,PAYLOAD,2023-06-02 18:46:19,15.08848083,9.43e-05,53.2169,302.2618,87.8894,272.2206,6.2383e-05,7.05e-06,0.0,0 STARLINK-4119,1 53026U 22076AS  23153.78216644  .00000705  00000-0  62383-4 0  9993,2 53026  53.2169 302.2618 0000943  87.8894 272.2206 15.08848083 50849,6917.856,95.437,540.373,539.068,0.0
53026.0,STARLINK-4119,PAYLOAD,2023-06-03 09:04:48,15.08840825,0.0001254,53.2171,299.5856,93.6652,266.4484,5.7362e-05,6.25e-06,0.0,0 STARLINK-4119,1 53026U 22076AS  23154.37833605  .00000625  00000-0  57362-4 0  9993,2 53026  53.2171 299.5856 0001254  93.6652 266.4484 15.08840825 50936,6917.878,95.438,540.61,538.875,0.0
53026.0,STARLINK-4119,PAYLOAD,2023-06-03 13:50:58,15.08833597,9.58e-05,53.2174,298.6937,95.4186,264.6915,-3.8695e-05,-9.03e-06,0.0,0 STARLINK-4119,1 53026U 22076AS  23154.57706350 -.00000903  00000-0 -38695-4 0  9990,2 53026  53.2174 298.6937 0000958  95.4186 264.6915 15.08833597 50499,6917.9,95.438,540.428,539.102,0.0
53026.0,STARLINK-4119,PAYLOAD,2023-06-03 17:01:44,15.08834192,9.65e-05,53.2182,298.0998,81.372,278.7381,4.7669e-06,-2.12e-06,0.0,0 STARLINK-4119,1 53026U 22076AS  23154.70954095 -.00000212  00000-0  47669-5 0  9990,2 53026  53.2182 298.0998 0000965  81.3720 278.7381 15.08834192 50984,6917.898,95.438,540.431,539.096,0.0
53026.0,STARLINK-4119,PAYLOAD,2023-06-04 13:41:44,15.08838981,0.0001151,53.2179,294.2328,81.2608,278.8515,1.8132e-05,1e-08,0.0,0 STARLINK-4119,1 53026U 22076AS  23155.57065957  .00000001  00000-0  18132-4 0  9993,2 53026  53.2179 294.2328 0001151  81.2608 278.8515 15.08838981 50640,6917.884,95.438,540.545,538.952,0.0
53026.0,STARLINK-4119,PAYLOAD,2023-06-04 18:27:54,15.08843356,0.0001046,53.2178,293.3401,83.7142,276.3969,3.8232e-05,3.21e-06,0.0,0 STARLINK-4119,1 53026U 22076AS  23155.76937592  .00000321  00000-0  38232-4 0  9995,2 53026  53.2178 293.3401 0001046  83.7142 276.3969 15.08843356 51148,6917.87,95.437,540.459,539.012,0.0
53026.0,STARLINK-4119,PAYLOAD,2023-06-05 13:32:31,15.08834671,8.94e-05,53.218,289.7727,82.7156,277.3938,0.00023832,3.507e-05,0.0,0 STARLINK-4119,1 53026U 22076AS  23156.56425661  .00003507  00000-0  23832-3 0  9991,2 53026  53.2180 289.7727 0000894  82.7156 277.3938 15.08834671 50792,6917.897,95.438,540.38,539.143,0.0
53026.0,STARLINK-4119,PAYLOAD,2023-06-05 15:07:54,15.08841791,9.18e-05,53.2168,289.4745,84.4754,275.6343,0.00015727,2.216e-05,0.0,0 STARLINK-4119,1 53026U 22076AS  23156.63049372  .00002216  00000-0  15727-3 0  9990,2 53026  53.2168 289.4745 0000918  84.4754 275.6343 15.08841791 50809,6917.875,95.437,540.375,539.105,0.0
53026.0,STARLINK-4119,PAYLOAD,2023-06-06 08:37:09,15.08836446,7.06e-05,53.2159,286.2041,74.5795,285.5275,7.8745e-05,9.66e-06,0.0,0 STARLINK-4119,1 53026U 22076AS  23157.35913877  .00000966  00000-0  78745-4 0  9990,2 53026  53.2159 286.2041 0000706  74.5795 285.5275 15.08836446 51382,6917.891,95.438,540.245,539.268,0.0
53026.0,STARLINK-4119,PAYLOAD,2023-06-06 18:09:28,15.08845625,0.0001003,53.2172,284.4182,96.0539,264.0568,3.6834e-05,2.99e-06,0.0,0 STARLINK-4119,1 53026U 22076AS  23157.75657425  .00000299  00000-0  36834-4 0  9990,2 53026  53.2172 284.4182 0001003  96.0539 264.0568 15.08845625 51442,6917.863,95.437,540.422,539.034,0.0
